NORAD_CAT_ID,OBJECT_NAME,OBJECT_TYPE,EPOCH,MEAN_MOTION,ECCENTRICITY,INCLINATION,RA_OF_ASC_NODE,ARG_OF_PERICENTER,MEAN_ANOMALY,BSTAR,MEAN_MOTION_DOT,MEAN_MOTION_DDOT,TLE_LINE0,TLE_LINE1,TLE_LINE2,SEMIMAJOR_AXIS,PERIOD,APOGEE,PERIGEE,DECAYED
51726.0,STARLINK-3527,PAYLOAD,2023-09-27 12:09:50,15.08843989,0.0001548,53.2198,13.2653,104.1022,256.0142,0.00012783,1.747e-05,0.0,0 STARLINK-3527,1 51726U 22016N   23270.50683870  .00001747  00000-0  12783-3 0  9996,2 51726  53.2198  13.2653 0001548 104.1022 256.0142 15.08843989 88572,6917.868,95.437,540.804,538.662,0.0
51726.0,STARLINK-3527,PAYLOAD,2023-09-27 13:45:14,15.08844813,0.0001368,53.2182,12.9703,82.0284,278.0863,0.00019551,2.825e-05,0.0,0 STARLINK-3527,1 51726U 22016N   23270.57307933  .00002825  00000-0  19551-3 0  9994,2 51726  53.2182  12.9703 0001368  82.0284 278.0863 15.08844813 89641,6917.866,95.437,540.677,538.784,0.0
51726.0,STARLINK-3527,PAYLOAD,2023-09-28 12:00:38,15.08840837,0.0001432,53.2188,8.8072,84.6071,275.5085,0.00013906,1.926e-05,0.0,0 STARLINK-3527,1 51726U 22016N   23271.50044330  .00001926  00000-0  13906-3 0  9996,2 51726  53.2188   8.8072 0001432  84.6071 275.5085 15.08840837 89789,6917.878,95.438,540.733,538.752,0.0
51726.0,STARLINK-3527,PAYLOAD,2023-09-28 13:36:01,15.08843748,0.0001454,53.2188,8.5093,84.069,276.0467,0.00018045,2.585e-05,0.0,0 STARLINK-3527,1 51726U 22016N   23271.56668192  .00002585  00000-0  18045-3 0  9991,2 51726  53.2188   8.5093 0001454  84.0690 276.0467 15.08843748 88732,6917.869,95.437,540.74,538.728,0.0
51726.0,STARLINK-3527,PAYLOAD,2023-09-29 13:26:48,15.08844491,0.0001526,53.2189,4.0471,100.2379,259.8786,8.6701e-05,1.092e-05,0.0,0 STARLINK-3527,1 51726U 22016N   23272.56028071  .00001092  00000-0  86701-4 0  9995,2 51726  53.2189   4.0471 0001526 100.2379 259.8786 15.08844491 88884,6917.867,95.437,540.787,538.676,0.0
51726.0,STARLINK-3527,PAYLOAD,2023-09-29 22:59:06,15.08849345,0.0001344,53.2174,2.2618,91.5639,268.5508,0.00029917,4.478e-05,0.0,0 STARLINK-3527,1 51726U 22016N   23272.95771911  .00004478  00000-0  29917-3 0  9992,2 51726  53.2174   2.2618 0001344  91.5639 268.5508 15.08849345 88949,6917.852,95.437,540.647,538.787,0.0
51726.0,STARLINK-3527,PAYLOAD,2023-09-30 14:52:57,15.08854502,0.000149,53.2176,359.288,92.927,267.1892,0.00023063,3.386e-05,0.0,0 STARLINK-3527,1 51726U 22016N   23273.62011359  .00003386  00000-0  23063-3 0  9993,2 51726  53.2176 359.2880 0001490  92.9270 267.1892 15.08854502 90108,6917.836,95.437,540.732,538.67,0.0
51726.0,STARLINK-3527,PAYLOAD,2023-09-30 22:49:53,15.08843974,0.0001576,53.2177,357.8009,94.6396,265.4777,3.0873e-05,2.03e-06,0.0,0 STARLINK-3527,1 51726U 22016N   23273.95131739  .00000203  00000-0  30873-4 0  9997,2 51726  53.2177 357.8009 0001576  94.6396 265.4777 15.08843974 90158,6917.868,95.437,540.823,538.643,0.0
51726.0,STARLINK-3527,PAYLOAD,2023-10-01 13:08:21,15.0885865,0.0001454,53.2179,355.1245,92.3104,267.8055,0.00022419,3.284e-05,0.0,0 STARLINK-3527,1 51726U 22016N   23274.54746936  .00003284  00000-0  22419-3 0  9992,2 51726  53.2179 355.1245 0001454  92.3104 267.8055 15.08858650 90242,6917.823,95.436,540.694,538.683,0.0
51726.0,STARLINK-3527,PAYLOAD,2023-10-01 14:43:44,15.08861249,0.000146,53.2178,354.827,97.0933,263.0225,0.00025405,3.76e-05,0.0,0 STARLINK-3527,1 51726U 22016N   23274.61370770  .00003760  00000-0  25405-3 0  9996,2 51726  53.2178 354.8270 0001460  97.0933 263.0225 15.08861249 89191,6917.815,95.436,540.69,538.67,0.0
51726.0,STARLINK-3527,PAYLOAD,2023-10-01 22:40:41,15.08832941,0.0001839,53.2185,353.3438,77.5101,282.6097,-0.00016725,-2.948e-05,0.0,0 STARLINK-3527,1 51726U 22016N   23274.94492342 -.00002948  00000-0 -16725-3 0  9996,2 51726  53.2185 353.3438 0001839  77.5101 282.6097 15.08832941 90305,6917.902,95.438,541.039,538.495,0.0
51726.0,STARLINK-3527,PAYLOAD,2023-10-02 11:23:47,15.08823962,0.0001368,53.2162,350.9643,79.9835,280.1311,-0.00015526,-2.757e-05,0.0,0 STARLINK-3527,1 51726U 22016N   23275.47485059 -.00002757  00000-0 -15526-3 0  9998,2 51726  53.2162 350.9643 0001368  79.9835 280.1311 15.08823962 90381,6917.929,95.439,540.741,538.848,0.0
51726.0,STARLINK-3527,PAYLOAD,2023-10-03 04:53:01,15.08841069,0.0001599,53.2169,347.6917,82.4044,277.7129,0.0001838,2.638e-05,0.0,0 STARLINK-3527,1 51726U 22016N   23276.20348661  .00002638  00000-0  18380-3 0  9994,2 51726  53.2169 347.6917 0001599  82.4044 277.7129 15.08841069 90491,6917.877,95.437,540.848,538.636,0.0
51726.0,STARLINK-3527,PAYLOAD,2023-10-03 11:14:33,15.08850057,0.0001623,53.2158,346.5026,78.5646,281.5528,0.00059426,9.185e-05,0.0,0 STARLINK-3527,1 51726U 22016N   23276.46844613  .00009185  00000-0  59426-3 0  9990,2 51726  53.2158 346.5026 0001623  78.5646 281.5528 15.08850057 89479,6917.85,95.437,540.837,538.592,0.0
51726.0,STARLINK-3527,PAYLOAD,2023-10-04 11:05:20,15.08861226,0.0001661,53.217,342.0419,82.7035,277.4146,0.00077294,0.00012042,0.0,0 STARLINK-3527,1 51726U 22016N   23277.46204342  .00012042  00000-0  77294-3 0  9999,2 51726  53.2170 342.0419 0001661  82.7035 277.4146 15.08861226 90686,6917.816,95.436,540.83,538.531,0.0
51726.0,STARLINK-3527,PAYLOAD,2023-10-05 04:34:35,15.0885178,0.0001782,53.217,338.7704,85.0952,275.0244,0.00074689,0.00011623,0.0,0 STARLINK-3527,1 51726U 22016N   23278.19068576  .00011623  00000-0  74689-3 0  9996,2 51726  53.2170 338.7704 0001782  85.0952 275.0244 15.08851780 90792,6917.844,95.437,540.942,538.477,0.0
51726.0,STARLINK-3527,PAYLOAD,2023-10-05 10:56:07,15.08844811,0.0001784,53.2174,337.581,90.9943,269.1253,0.00055595,8.572e-05,0.0,0 STARLINK-3527,1 51726U 22016N   23278.45564587  .00008572  00000-0  55595-3 0  9992,2 51726  53.2174 337.5810 0001784  90.9943 269.1253 15.08844811 90834,6917.866,95.437,540.965,538.497,0.0
51726.0,STARLINK-3527,PAYLOAD,2023-10-05 20:28:26,15.08837279,0.0001686,53.2167,335.7976,92.7074,267.4111,0.00017123,2.438e-05,0.0,0 STARLINK-3527,1 51726U 22016N   23278.85308768  .00002438  00000-0  17123-3 0  9993,2 51726  53.2167 335.7976 0001686  92.7074 267.4111 15.08837279 90895,6917.889,95.438,540.92,538.587,0.0
51726.0,STARLINK-3527,PAYLOAD,2023-10-06 10:46:55,15.08837082,0.0001662,53.2188,333.1255,94.2781,265.8401,3.2458e-05,2.29e-06,0.0,0 STARLINK-3527,1 51726U 22016N   23279.44925033  .00000229  00000-0  32458-4 0  9994,2 51726  53.2188 333.1255 0001662  94.2781 265.8401 15.08837082 89924,6917.889,95.438,540.904,538.605,0.0
51726.0,STARLINK-3527,PAYLOAD,2023-10-06 20:19:13,15.0883835,0.0001363,53.2163,331.3348,81.6321,278.4826,1.6288e-05,-2.9e-07,0.0,0 STARLINK-3527,1 51726U 22016N   23279.84668907 -.00000029  00000-0  16288-4 0  9994,2 51726  53.2163 331.3348 0001363  81.6321 278.4826 15.08838350 89984,6917.885,95.438,540.693,538.808,0.0
51726.0,STARLINK-3527,PAYLOAD,2023-10-07 10:37:42,15.08846016,0.0001456,53.2162,328.6612,98.6989,261.4168,0.00024557,3.623e-05,0.0,0 STARLINK-3527,1 51726U 22016N   23280.44284800  .00003623  00000-0  24557-3 0  9997,2 51726  53.2162 328.6612 0001456  98.6989 261.4168 15.08846016 91136,6917.862,95.437,540.734,538.72,0.0
51726.0,STARLINK-3527,PAYLOAD,2023-10-07 20:10:00,15.08846573,0.0001366,53.217,326.8759,86.4844,273.6304,0.00022351,3.272e-05,0.0,0 STARLINK-3527,1 51726U 22016N   23280.84028759  .00003272  00000-0  22351-3 0  9990,2 51726  53.2170 326.8759 0001366  86.4844 273.6304 15.08846573 90136,6917.86,95.437,540.67,538.78,0.0
51726.0,STARLINK-3527,PAYLOAD,2023-10-08 02:31:34,15.08832994,0.0001567,53.2175,325.6879,91.1412,268.9759,0.00010495,1.382e-05,0.0,0 STARLINK-3527,1 51726U 22016N   23281.10525557  .00001382  00000-0  10495-3 0  9994,2 51726  53.2175 325.6879 0001567  91.1412 268.9759 15.08832994 91233,6917.902,95.438,540.851,538.683,0.0
51726.0,STARLINK-3527,PAYLOAD,2023-10-08 10:28:29,15.08840644,0.0001632,53.218,324.2005,90.4914,269.6265,0.00012171,1.65e-05,0.0,0 STARLINK-3527,1 51726U 22016N   23281.43645218  .00001650  00000-0  12171-3 0  9998,2 51726  53.2180 324.2005 0001632  90.4914 269.6265 15.08840644 90226,6917.878,95.438,540.872,538.614,0.0
51726.0,STARLINK-3527,PAYLOAD,2023-10-08 20:00:48,15.08843522,0.0001658,53.218,322.4167,90.5483,269.57,0.00012919,1.769e-05,0.0,0 STARLINK-3527,1 51726U 22016N   23281.83389146  .00001769  00000-0  12919-3 0  9998,2 51726  53.2180 322.4167 0001658  90.5483 269.5700 15.08843522 90282,6917.87,95.437,540.882,538.588,0.0
51726.0,STARLINK-3527,PAYLOAD,2023-10-09 10:19:16,15.08849674,0.0001563,53.2164,319.7411,93.8841,266.2329,0.000266,3.949e-05,0.0,0 STARLINK-3527,1 51726U 22016N   23282.43004896  .00003949  00000-0  26600-3 0  9995,2 51726  53.2164 319.7411 0001563  93.8841 266.2329 15.08849674 90379,6917.851,95.437,540.797,538.635,0.0
51726.0,STARLINK-3527,PAYLOAD,2023-10-10 02:13:07,15.0884286,0.0001735,53.2165,316.7663,91.4995,268.6196,0.00022702,3.327e-05,0.0,0 STARLINK-3527,1 51726U 22016N   23283.09245265  .00003327  00000-0  22702-3 0  9994,2 51726  53.2165 316.7663 0001735  91.4995 268.6196 15.08842860 91538,6917.872,95.437,540.937,538.536,0.0
51726.0,STARLINK-3527,PAYLOAD,2023-10-10 08:34:40,15.08844963,0.0001689,53.2162,315.5761,89.4672,270.6514,0.00019305,2.786e-05,0.0,0 STARLINK-3527,1 51726U 22016N   23283.35741162  .00002786  00000-0  19305-3 0  9993,2 51726  53.2162 315.5761 0001689  89.4672 270.6514 15.08844963 90518,6917.865,95.437,540.899,538.562,0.0
51726.0,STARLINK-3527,PAYLOAD,2023-10-10 19:42:22,15.08842087,0.0001681,53.2163,313.4956,86.7871,273.3314,0.00012407,1.687e-05,0.0,0 STARLINK-3527,1 51726U 22016N   23283.82109283  .00001687  00000-0  12407-3 0  9992,2 51726  53.2163 313.4956 0001681  86.7871 273.3314 15.08842087 90585,6917.874,95.437,540.902,538.576,0.0
51726.0,STARLINK-3527,PAYLOAD,2023-10-11 05:14:41,15.08837181,0.0001861,53.2166,311.7114,91.2123,268.9083,2.8675e-05,1.68e-06,0.0,0 STARLINK-3527,1 51726U 22016N   23284.21853702  .00000168  00000-0  28675-4 0  9996,2 51726  53.2166 311.7114 0001861  91.2123 268.9083 15.08837181 91703,6917.889,95.438,541.041,538.467,0.0
